{"type": "FeatureCollection", "features": [ {"type": "Feature", "properties": {"norad_id": 39122, "name": "EUTELSAT 117 WEST A", "group": "eutelsat", "lat": -0.0423118254594233, "lon": -118.66974504679237, "alt_km": 35773.40367808561, "timestamp": "2025-12-05T18:53:12.968017+00:00", "meta": {"OBJECT_NAME": "EUTELSAT 117 WEST A", "OBJECT_ID": "2013-012A", "EPOCH": "2025-12-05T06:17:38.868288", "MEAN_MOTION": 1.0027047, "ECCENTRICITY": 0.00031392, "INCLINATION": 0.0174, "RA_OF_ASC_NODE": 318.7194, "ARG_OF_PERICENTER": 294.2243, "MEAN_ANOMALY": 159.0023, "EPHEMERIS_TYPE": 0, "CLASSIFICATION_TYPE": "U", "NORAD_CAT_ID": 39122, "ELEMENT_SET_NO": 999, "REV_AT_EPOCH": 4648, "BSTAR": 0, "MEAN_MOTION_DOT": -1e-08, "MEAN_MOTION_DDOT": 0}, "tle": {"line1": "1 39122U 13012A   25339.26225542 -.00000001  00000+0  00000+0 0  9994", "line2": "2 39122   0.0174 318.7194 0003139 294.2243 159.0023  1.00270470 46489"}}, "geometry": {"type": "Point", "coordinates": [-118.66974504679237, -0.0423118254594233]}}, {"type": "Feature", "properties": {"norad_id": 39163, "name": "EUTELSAT 7B", "group": "eutelsat", "lat": 0.013442083255594164, "lon": 5.155888699665272, "alt_km": 35775.82648710814, "timestamp": "2025-12-05T18:53:12.968029+00:00", "meta": {"OBJECT_NAME": "EUTELSAT 7B", "OBJECT_ID": "2013-022A", "EPOCH": "2025-12-05T03:27:25.181280", "MEAN_MOTION": 1.00269942, "ECCENTRICITY": 0.00043428, "INCLINATION": 0.0681, "RA_OF_ASC_NODE": 4.14, "ARG_OF_PERICENTER": 307.2054, "MEAN_ANOMALY": 181.7067, "EPHEMERIS_TYPE": 0, "CLASSIFICATION_TYPE": "U", "NORAD_CAT_ID": 39163, "ELEMENT_SET_NO": 999, "REV_AT_EPOCH": 4601, "BSTAR": 0, "MEAN_MOTION_DOT": 6e-07, "MEAN_MOTION_DDOT": 0}, "tle": {"line1": "1 39163U 13022A   25339.14404145  .00000060  00000+0  00000+0 0  9999", "line2": "2 39163   0.0681   4.1400 0004342 307.2054 181.7067  1.00269942 46016"}}, "geometry": {"type": "Point", "coordinates": [5.155888699665272, 0.013442083255594164]}}, {"type": "Feature", "properties": {"norad_id": 39612, "name": "EXPRESS-AT1", "group": "eutelsat", "lat": 0.03818063508685503, "lon": 54.12562514465373, "alt_km": 35786.604078338394, "timestamp": "2025-12-05T18:53:12.968041+00:00", "meta": {"OBJECT_NAME": "EXPRESS-AT1", "OBJECT_ID": "2014-010A", "EPOCH": "2025-12-05T01:58:41.183904", "MEAN_MOTION": 1.00272499, "ECCENTRICITY": 4.4e-05, "INCLINATION": 0.0166, "RA_OF_ASC_NODE": 302.5758, "ARG_OF_PERICENTER": 226.8234, "MEAN_ANOMALY": 350.4172, "EPHEMERIS_TYPE": 0, "CLASSIFICATION_TYPE": "U", "NORAD_CAT_ID": 39612, "ELEMENT_SET_NO": 999, "REV_AT_EPOCH": 4287, "BSTAR": 0, "MEAN_MOTION_DOT": 9.1e-07, "MEAN_MOTION_DDOT": 0}, "tle": {"line1": "1 39612U 14010A   25339.08242111  .00000091  00000+0  00000+0 0  9996", "line2": "2 39612   0.0166 302.5758 0000440 226.8234 350.4172  1.00272499 42878"}}, "geometry": {"type": "Point", "coordinates": [54.12562514465373, 0.03818063508685503]}}, {"type": "Feature", "properties": {"norad_id": 39613, "name": "EXPRESS-AT2", "group": "eutelsat", "lat": 0.02006619379021876, "lon": 137.97077888349568, "alt_km": 35792.768416519124, "timestamp": "2025-12-05T18:53:12.968067+00:00", "meta": {"OBJECT_NAME": "EXPRESS-AT2", "OBJECT_ID": "2014-010B", "EPOCH": "2025-12-05T10:56:14.358336", "MEAN_MOTION": 1.00269716, "ECCENTRICITY": 0.0001548, "INCLINATION": 0.0195, "RA_OF_ASC_NODE": 354.2354, "ARG_OF_PERICENTER": 302.4165, "MEAN_ANOMALY": 81.7726, "EPHEMERIS_TYPE": 0, "CLASSIFICATION_TYPE": "U", "NORAD_CAT_ID": 39613, "ELEMENT_SET_NO": 999, "REV_AT_EPOCH": 4255, "BSTAR": 0, "MEAN_MOTION_DOT": 0, "MEAN_MOTION_DDOT": 0}, "tle": {"line1": "1 39613U 14010B   25339.45572174  .00000000  00000+0  00000+0 0  9993", "line2": "2 39613   0.0195 354.2354 0001548 302.4165  81.7726  1.00269716 42553"}}, "geometry": {"type": "Point", "coordinates": [137.97077888349568, 0.02006619379021876]}}, {"type": "Feature", "properties": {"norad_id": 39773, "name": "EUTELSAT 3B", "group": "eutelsat", "lat": 0.0046670961467355394, "lon": 1.263604505975905, "alt_km": 35799.47899181247, "timestamp": "2025-12-05T18:53:12.968082+00:00", "meta": {"OBJECT_NAME": "EUTELSAT 3B", "OBJECT_ID": "2014-030A", "EPOCH": "2025-12-05T03:26:17.789280", "MEAN_MOTION": 1.00271208, "ECCENTRICITY": 0.00047708, "INCLINATION": 0.0638, "RA_OF_ASC_NODE": 6.529, "ARG_OF_PERICENTER": 223.3593, "MEAN_ANOMALY": 258.9859, "EPHEMERIS_TYPE": 0, "CLASSIFICATION_TYPE": "U", "NORAD_CAT_ID": 39773, "ELEMENT_SET_NO": 999, "REV_AT_EPOCH": 4212, "BSTAR": 0, "MEAN_MOTION_DOT": 3.2e-07, "MEAN_MOTION_DDOT": 0}, "tle": {"line1": "1 39773U 14030A   25339.14326145  .00000032  00000+0  00000+0 0  9998", "line2": "2 39773   0.0638   6.5290 0004770 223.3593 258.9859  1.00271208 42121"}}, "geometry": {"type": "Point", "coordinates": [1.263604505975905, 0.0046670961467355394]}}, {"type": "Feature", "properties": {"norad_id": 40425, "name": "EUTELSAT 115 WEST B", "group": "eutelsat", "lat": 0.011721512934566606, "lon": -116.74171261445987, "alt_km": 35787.55383699073, "timestamp": "2025-12-05T18:53:12.968096+00:00", "meta": {"OBJECT_NAME": "EUTELSAT 115 WEST B", "OBJECT_ID": "2015-010B", "EPOCH": "2025-12-05T04:42:38.564352", "MEAN_MOTION": 1.00273302, "ECCENTRICITY": 4.537e-05, "INCLINATION": 0.0143, "RA_OF_ASC_NODE": 149.4654, "ARG_OF_PERICENTER": 277.0632, "MEAN_ANOMALY": 323.5157, "EPHEMERIS_TYPE": 0, "CLASSIFICATION_TYPE": "U", "NORAD_CAT_ID": 40425, "ELEMENT_SET_NO": 999, "REV_AT_EPOCH": 3944, "BSTAR": 0, "MEAN_MOTION_DOT": -1.3e-07, "MEAN_MOTION_DDOT": 0}, "tle": {"line1": "1 40425U 15010B   25339.19627968 -.00000013  00000+0  00000+0 0  9995", "line2": "2 40425   0.0143 149.4654 0000453 277.0632 323.5157  1.00273302 39441"}}, "geometry": {"type": "Point", "coordinates": [-116.74171261445987, 0.011721512934566606]}}, {"type": "Feature", "properties": {"norad_id": 40875, "name": "EUTELSAT 8 WEST B", "group": "eutelsat", "lat": 0.006179688440431471, "lon": -9.81463240141735, "alt_km": 35787.49709822976, "timestamp": "2025-12-05T18:53:12.968108+00:00", "meta": {"OBJECT_NAME": "EUTELSAT 8 WEST B", "OBJECT_ID": "2015-039B", "EPOCH": "2025-12-05T03:23:10.587264", "MEAN_MOTION": 1.00271612, "ECCENTRICITY": 0.00041457, "INCLINATION": 0.0649, "RA_OF_ASC_NODE": 350.9505, "ARG_OF_PERICENTER": 264.7331, "MEAN_ANOMALY": 221.3234, "EPHEMERIS_TYPE": 0, "CLASSIFICATION_TYPE": "U", "NORAD_CAT_ID": 40875, "ELEMENT_SET_NO": 999, "REV_AT_EPOCH": 3771, "BSTAR": 0, "MEAN_MOTION_DOT": -5.3e-07, "MEAN_MOTION_DDOT": 0}, "tle": {"line1": "1 40875U 15039B   25339.14109476 -.00000053  00000+0  00000+0 0  9993", "line2": "2 40875   0.0649 350.9505 0004145 264.7331 221.3234  1.00271612 37717"}}, "geometry": {"type": "Point", "coordinates": [-9.81463240141735, 0.006179688440431471]}}, {"type": "Feature", "properties": {"norad_id": 41310, "name": "EUTELSAT 9B", "group": "eutelsat", "lat": -0.04549085078910679, "lon": 7.174634880402704, "alt_km": 35790.04351346423, "timestamp": "2025-12-05T18:53:12.968120+00:00", "meta": {"OBJECT_NAME": "EUTELSAT 9B", "OBJECT_ID": "2016-005A", "EPOCH": "2025-12-05T03:28:02.620992", "MEAN_MOTION": 1.00271858, "ECCENTRICITY": 0.00049976, "INCLINATION": 0.0704, "RA_OF_ASC_NODE": 75.5846, "ARG_OF_PERICENTER": 190.7087, "MEAN_ANOMALY": 228.9131, "EPHEMERIS_TYPE": 0, "CLASSIFICATION_TYPE": "U", "NORAD_CAT_ID": 41310, "ELEMENT_SET_NO": 999, "REV_AT_EPOCH": 3617, "BSTAR": 0, "MEAN_MOTION_DOT": 7.4e-07, "MEAN_MOTION_DDOT": 0}, "tle": {"line1": "1 41310U 16005A   25339.14447478  .00000074  00000+0  00000+0 0  9991", "line2": "2 41310   0.0704  75.5846 0004997 190.7087 228.9131  1.00271858 36173"}}, "geometry": {"type": "Point", "coordinates": [7.174634880402704, -0.04549085078910679]}}, {"type": "Feature", "properties": {"norad_id": 41382, "name": "EUTELSAT 65 WEST A", "group": "eutelsat", "lat": -0.05855422126926085, "lon": -67.06350890701842, "alt_km": 35776.166228990325, "timestamp": "2025-12-05T18:53:12.968132+00:00", "meta": {"OBJECT_NAME": "EUTELSAT 65 WEST A", "OBJECT_ID": "2016-014A", "EPOCH": "2025-12-05T06:07:38.867808", "MEAN_MOTION": 1.00269991, "ECCENTRICITY": 0.00028669, "INCLINATION": 0.0492, "RA_OF_ASC_NODE": 350.5191, "ARG_OF_PERICENTER": 272.1741, "MEAN_ANOMALY": 198.3295, "EPHEMERIS_TYPE": 0, "CLASSIFICATION_TYPE": "U", "NORAD_CAT_ID": 41382, "ELEMENT_SET_NO": 999, "REV_AT_EPOCH": 3559, "BSTAR": 0, "MEAN_MOTION_DOT": -2.64e-06, "MEAN_MOTION_DDOT": 0}, "tle": {"line1": "1 41382U 16014A   25339.25531097 -.00000264  00000+0  00000+0 0  9995", "line2": "2 41382   0.0492 350.5191 0002866 272.1741 198.3295  1.00269991 35591"}}, "geometry": {"type": "Point", "coordinates": [-67.06350890701842, -0.05855422126926085]}}, {"type": "Feature", "properties": {"norad_id": 41589, "name": "EUTELSAT 117 WEST B", "group": "eutelsat", "lat": 0.018179731407324675, "lon": -118.87993251972077, "alt_km": 35787.50078113365, "timestamp": "2025-12-05T18:53:12.968144+00:00", "meta": {"OBJECT_NAME": "EUTELSAT 117 WEST B", "OBJECT_ID": "2016-038B", "EPOCH": "2025-12-04T23:26:32.000928", "MEAN_MOTION": 1.00268963, "ECCENTRICITY": 2.521e-05, "INCLINATION": 0.0075, "RA_OF_ASC_NODE": 147.6568, "ARG_OF_PERICENTER": 325.2322, "MEAN_ANOMALY": 195.7827, "EPHEMERIS_TYPE": 0, "CLASSIFICATION_TYPE": "U", "NORAD_CAT_ID": 41589, "ELEMENT_SET_NO": 999, "REV_AT_EPOCH": 3471, "BSTAR": 0, "MEAN_MOTION_DOT": 2e-08, "MEAN_MOTION_DDOT": 0}, "tle": {"line1": "1 41589U 16038B   25338.97675927  .00000002  00000+0  00000+0 0  9998", "line2": "2 41589   0.0075 147.6568 0000252 325.2322 195.7827  1.00268963 34715"}}, "geometry": {"type": "Point", "coordinates": [-118.87993251972077, 0.018179731407324675]}}]}